CTC2_L_00210016-03
1 10062U 26047YD  26075.70042824  .00000000  00000+0  00000-0 0  9994
2 10062  40.0000 180.0000 0000000   0.0000   0.0000 14.33516687    19
CTC2_L_00210016-04
1 10063U 26067BY  26075.70042824  .00000000  00000+0  00000-0 0  9997
2 10063  40.0000 180.0000 0000000   0.0000  90.0000 14.33516687    19
CTC2_L_00210017-01
1 10064U 24079LA  26075.70042824  .00000000  00000+0  00000-0 0  9999
2 10064  40.0000 192.0000 0000000   0.0000 192.0000 14.33516687    16
CTC2_L_00210017-02
1 10065U 22810TU  26075.70042824  .00000000  00000+0  00000-0 0  9991
2 10065  40.0000 192.0000 0000000   0.0000 282.0000 14.33516687    17
CTC2_L_00210017-03
1 10066U 23055XR  26075.70042824  .00000000  00000+0  00000-0 0  9994
2 10066  40.0000 192.0000 0000000   0.0000  12.0000 14.33516687    19
CTC2_L_00210017-04
1 10067U 26093ZC  26075.70042824  .00000000  00000+0  00000-0 0  9990
2 10067  40.0000 192.0000 0000000   0.0000 102.0000 14.33516687    10
CTC2_L_00210018-01
1 10068U 22362JK  26075.70042824  .00000000  00000+0  00000-0 0  9996
2 10068  40.0000 204.0000 0000000   0.0000 204.0000 14.33516687    18
CTC2_L_00210018-02
1 10069U 22236VS  26075.70042824  .00000000  00000+0  00000-0 0  9997
2 10069  40.0000 204.0000 0000000   0.0000 294.0000 14.33516687    18
CTC2_L_00210018-03
1 10070U 24788NK  26075.70042824  .00000000  00000+0  00000-0 0  9993
2 10070  40.0000 204.0000 0000000   0.0000  24.0000 14.33516687    11
CTC2_L_00210018-04
1 10071U 26236EF  26075.70042824  .00000000  00000+0  00000-0 0  9994
2 10071  40.0000 204.0000 0000000   0.0000 114.0000 14.33516687    12
CTC2_L_00210019-01
1 10072U 25570UU  26075.70042824  .00000000  00000+0  00000-0 0  9995
2 10072  40.0000 216.0000 0000000   0.0000 216.0000 14.33516687    19
CTC2_L_00210019-02
1 10073U 23731OY  26075.70042824  .00000000  00000+0  00000-0 0  9993
2 10073  40.0000 216.0000 0000000   0.0000 306.0000 14.33516687    10
CTC2_L_00210019-03
1 10074U 23762CI  26075.70042824  .00000000  00000+0  00000-0 0  9998
2 10074  40.0000 216.0000 0000000   0.0000  36.0000 14.33516687    11
CTC2_L_00210019-04
1 10075U 22857OK  26075.70042824  .00000000  00000+0  00000-0 0  9993
2 10075  40.0000 216.0000 0000000   0.0000 126.0000 14.33516687    12
CTC2_L_00210020-01
1 10076U 23416ST  26075.70042824  .00000000  00000+0  00000-0 0  9996
2 10076  40.0000 228.0000 0000000   0.0000 228.0000 14.33516687    19
CTC2_L_00210020-02
1 10077U 24733JF  26075.70042824  .00000000  00000+0  00000-0 0  9990
2 10077  40.0000 228.0000 0000000   0.0000 318.0000 14.33516687    10
CTC2_L_00210020-03
1 10078U 26865XV  26075.70042824  .00000000  00000+0  00000-0 0  9999
2 10078  40.0000 228.0000 0000000   0.0000  48.0000 14.33516687    11
CTC2_L_00210020-04
1 10079U 22279BD  26075.70042824  .00000000  00000+0  00000-0 0  9995
2 10079  40.0000 228.0000 0000000   0.0000 138.0000 14.33516687    12
CTC2_L_00210021-01
1 10080U 25740ML  26075.70042824  .00000000  00000+0  00000-0 0  9993
2 10080  40.0000 240.0000 0000000   0.0000 240.0000 14.33516687    12
CTC2_L_00210021-02
1 10081U 22618LW  26075.70042824  .00000000  00000+0  00000-0 0  9995
2 10081  40.0000 240.0000 0000000   0.0000 330.0000 14.33516687    13
CTC2_L_00210021-03
1 10082U 23375FD  26075.70042824  .00000000  00000+0  00000-0 0  9997
2 10082  40.0000 240.0000 0000000   0.0000  60.0000 14.33516687    14
CTC2_L_00210021-04
1 10083U 24322MO  26075.70042824  .00000000  00000+0  00000-0 0  9991
2 10083  40.0000 240.0000 0000000   0.0000 150.0000 14.33516687    15
CTC2_L_00210022-01
1 10084U 23873AK  26075.70042824  .00000000  00000+0  00000-0 0  9992
2 10084  40.0000 252.0000 0000000   0.0000 252.0000 14.33516687    12
CTC2_L_00210022-02
1 10085U 25638WF  26075.70042824  .00000000  00000+0  00000-0 0  9994
2 10085  40.0000 252.0000 0000000   0.0000 342.0000 14.33516687    13
CTC2_L_00210022-03
1 10086U 23722PL  26075.70042824  .00000000  00000+0  00000-0 0  9997
2 10086  40.0000 252.0000 0000000   0.0000  72.0000 14.33516687    14
CTC2_L_00210022-04
1 10087U 24332CG  26075.70042824  .00000000  00000+0  00000-0 0  9996
2 10087  40.0000 252.0000 0000000   0.0000 162.0000 14.33516687    15
CTC2_L_00210023-01
1 10088U 26562LW  26075.70042824  .00000000  00000+0  00000-0 0  9994
2 10088  40.0000 264.0000 0000000   0.0000 264.0000 14.33516687    12
CTC2_L_00210023-02
1 10089U 26668JB  26075.70042824  .00000000  00000+0  00000-0 0  9992
2 10089  40.0000 264.0000 0000000   0.0000 354.0000 14.33516687    13
CTC2_L_00210023-03
1 10090U 23503UB  26075.70042824  .00000000  00000+0  00000-0 0  9999
2 10090  40.0000 264.0000 0000000   0.0000  84.0000 14.33516687    15
CTC2_L_00210023-04
1 10091U 22464TV  26075.70042824  .00000000  00000+0  00000-0 0  9995
2 10091  40.0000 264.0000 0000000   0.0000 174.0000 14.33516687    16
CTC2_L_00210024-01
1 10092U 26958KS  26075.70042824  .00000000  00000+0  00000-0 0  9998
2 10092  40.0000 276.0000 0000000   0.0000 276.0000 14.33516687    13
CTC2_L_00210024-02
1 10093U 22265XU  26075.70042824  .00000000  00000+0  00000-0 0  9996
2 10093  40.0000 276.0000 0000000   0.0000   6.0000 14.33516687    15
CTC2_L_00210024-03
1 10094U 23812KC  26075.70042824  .00000000  00000+0  00000-0 0  9996
2 10094  40.0000 276.0000 0000000   0.0000  96.0000 14.33516687    15
CTC2_L_00210024-04
1 10095U 25924BA  26075.70042824  .00000000  00000+0  00000-0 0  9993
2 10095  40.0000 276.0000 0000000   0.0000 186.0000 14.33516687    16
CTC2_L_00210025-01
1 10096U 23462BH  26075.70042824  .00000000  00000+0  00000-0 0  9999
2 10096  40.0000 288.0000 0000000   0.0000 288.0000 14.33516687    13
CTC2_L_00210025-02
1 10097U 23508YN  26075.70042824  .00000000  00000+0  00000-0 0  9991
2 10097  40.0000 288.0000 0000000   0.0000  18.0000 14.33516687    15
CTC2_L_00210025-03
1 10098U 24380SF  26075.70042824  .00000000  00000+0  00000-0 0  9991
2 10098  40.0000 288.0000 0000000   0.0000 108.0000 14.33516687    16
CTC2_L_00210025-04
1 10099U 25496VK  26075.70042824  .00000000  00000+0  00000-0 0  9991
2 10099  40.0000 288.0000 0000000   0.0000 198.0000 14.33516687    16
CTC2_L_00210026-01
1 10100U 23119HH  26075.70042824  .00000000  00000+0  00000-0 0  9994
2 10100  40.0000 300.0000 0000000   0.0000 300.0000 14.33516687    19
CTC2_L_00210026-02
1 10101U 22106YS  26075.70042824  .00000000  00000+0  00000-0 0  9990
2 10101  40.0000 300.0000 0000000   0.0000  30.0000 14.33516687    10
CTC2_L_00210026-03
1 10102U 26236MA  26075.70042824  .00000000  00000+0  00000-0 0  9999
2 10102  40.0000 300.0000 0000000   0.0000 120.0000 14.33516687    11
CTC2_L_00210026-04
1 10103U 23389KT  26075.70042824  .00000000  00000+0  00000-0 0  9996
2 10103  40.0000 300.0000 0000000   0.0000 210.0000 14.33516687    12
CTC2_L_00210027-01
1 10104U 24137Y   26075.70042824  .00000000  00000+0  00000-0 0  9999
2 10104  40.0000 312.0000 0000000   0.0000 312.0000 14.33516687    19
CTC2_L_00210027-02
1 10105U 22262KO  26075.70042824  .00000000  00000+0  00000-0 0  9997
2 10105  40.0000 312.0000 0000000   0.0000  42.0000 14.33516687    10
CTC2_L_00210027-03
1 10106U 22537OH  26075.70042824  .00000000  00000+0  00000-0 0  9993
2 10106  40.0000 312.0000 0000000   0.0000 132.0000 14.33516687    11
CTC2_L_00210027-04
1 10107U 26721HS  26075.70042824  .00000000  00000+0  00000-0 0  9993
2 10107  40.0000 312.0000 0000000   0.0000 222.0000 14.33516687    12
CTC2_L_00210028-01
1 10108U 22743TE  26075.70042824  .00000000  00000+0  00000-0 0  9994
2 10108  40.0000 324.0000 0000000   0.0000 324.0000 14.33516687    19
CTC2_L_00210028-02
1 10109U 22872PX  26075.70042824  .00000000  00000+0  00000-0 0  9998
2 10109  40.0000 324.0000 0000000   0.0000  54.0000 14.33516687    10
CTC2_L_00210028-03
1 10110U 25283RC  26075.70042824  .00000000  00000+0  00000-0 0  9999
2 10110  40.0000 324.0000 0000000   0.0000 144.0000 14.33516687    12
CTC2_L_00210028-04
1 10111U 23068G   26075.70042824  .00000000  00000+0  00000-0 0  9999
2 10111  40.0000 324.0000 0000000   0.0000 234.0000 14.33516687    13
CTC2_L_00210029-01
1 10112U 26540HX  26075.70042824  .00000000  00000+0  00000-0 0  9998
2 10112  40.0000 336.0000 0000000   0.0000 336.0000 14.33516687    10
CTC2_L_00210029-02
1 10113U 23186PI  26075.70042824  .00000000  00000+0  00000-0 0  9992
2 10113  40.0000 336.0000 0000000   0.0000  66.0000 14.33516687    11
CTC2_L_00210029-03
1 10114U 26912PC  26075.70042824  .00000000  00000+0  00000-0 0  9993
2 10114  40.0000 336.0000 0000000   0.0000 156.0000 14.33516687    12
CTC2_L_00210029-04
1 10115U 24449SK  26075.70042824  .00000000  00000+0  00000-0 0  9997
2 10115  40.0000 336.0000 0000000   0.0000 246.0000 14.33516687    13
CTC2_L_00210030-01
1 10116U 22334IC  26075.70042824  .00000000  00000+0  00000-0 0  9999
2 10116  40.0000 348.0000 0000000   0.0000 348.0000 14.33516687    10
CTC2_L_00210030-02
1 10117U 22903GA  26075.70042824  .00000000  00000+0  00000-0 0  9992
2 10117  40.0000 348.0000 0000000   0.0000  78.0000 14.33516687    11
CTC2_L_00210030-03
1 10118U 23321SW  26075.70042824  .00000000  00000+0  00000-0 0  9998
2 10118  40.0000 348.0000 0000000   0.0000 168.0000 14.33516687    12
CTC2_L_00210030-04
1 10119U 24551HG  26075.70042824  .00000000  00000+0  00000-0 0  9995
2 10119  40.0000 348.0000 0000000   0.0000 258.0000 14.33516687    13
